ONEWEB-0249             
1 48967U 21060A   25276.48634801  .00000000  00000+0 -32547-4 0  9994
2 48967  87.8968 279.9302 0001952  93.0150 267.1204 13.16596794205830
ONEWEB-0250             
1 48968U 21060B   25276.03621615  .00000038  00000+0  57168-4 0  9991
2 48968  87.8971 278.6180 0002731 106.3408 253.8028 13.25814506206140
ONEWEB-0252             
1 48970U 21060D   25276.44204555 -.00000464  00000+0 -12485-2 0  9995
2 48970  87.8976 279.9318 0001993  87.4616 272.6743 13.16580583205871
ONEWEB-0253             
1 48971U 21060E   25276.43094310  .00000030  00000+0  44858-4 0  9999
2 48971  87.8975 279.9379 0001756  95.6155 264.5176 13.16594479205806
ONEWEB-0254             
1 48972U 21060F   25276.44045899 -.00001033  00000+0 -27352-2 0  9993
2 48972  87.8977 279.9242 0001768 103.5354 256.5974 13.16587866205800
ONEWEB-0255             
1 48973U 21060G   25276.47844881  .00000017  00000+0  98696-5 0  9996
2 48973  87.8963 279.9406 0001816  98.4274 261.7063 13.16593494205884
ONEWEB-0256             
1 48974U 21060H   25276.42857017  .00000044  00000+0  81267-4 0  9992
2 48974  87.8963 279.9610 0001874  86.2743 273.8603 13.16593650205846
ONEWEB-0257             
1 48975U 21060J   25276.46102539  .00000034  00000+0  55938-4 0  9994
2 48975  87.8972 279.9257 0001735  95.2142 264.9187 13.16592861205800
